ONEWEB-0056             
1 45159U 20008AE  25261.91815306  .00000101  00000+0  25224-3 0  9992
2 45159  87.8736  90.3567 0001730  87.0310 273.1015 13.10369135272658
ONEWEB-0057             
1 45160U 20008AF  25261.92561542 -.00000287  00000+0 -85870-3 0  9995
2 45160  87.8732  90.3687 0001811  83.2929 276.8405 13.10369724272829
ONEWEB-0058             
1 45161U 20008AG  25261.91249395  .00000366  00000+0  10109-2 0  9992
2 45161  87.8732  90.3813 0001482  85.3094 274.8202 13.10369699272892
ONEWEB-0059             
1 45162U 20008AH  25261.90902883  .00000568  00000+0  15895-2 0  9991
2 45162  87.8734  90.3826 0001565  88.0980 272.0327 13.10370102272793
ONEWEB-0062             
1 45163U 20008AJ  25261.93474165 -.00000636  00000+0 -18581-2 0  9995
2 45163  87.8735  90.3548 0001592 100.5093 259.6214 13.10370680272664
ONEWEB-0065             
1 45164U 20008AK  25261.91483701  .00000267  00000+0  72935-3 0  9992
2 45164  87.8731  90.3844 0002044  84.6039 275.5321 13.10369229272354
ONEWEB-0066             
1 45424U 20020A   25261.91166655 -.00000103  00000+0 -32761-3 0  9995
2 45424  87.8786  75.1010 0001611  81.6368 278.4943 13.11419609267120
ONEWEB-0067             
1 45425U 20020B   25261.87283463  .00000148  00000+0  38184-3 0  9990
2 45425  87.8768  75.0138 0001732  83.8465 276.2861 13.11415544267171
